[{"OBJECT_NAME":"ICEYE-X64","OBJECT_ID":"2026-004L","EPOCH":"2026-03-09T22:08:51.177984","MEAN_MOTION":14.87676909,"ECCENTRICITY":0.00074629,"INCLINATION":97.8018,"RA_OF_ASC_NODE":69.1111,"ARG_OF_PERICENTER":100.9469,"MEAN_ANOMALY":259.2588,"EPHEMERIS_TYPE":0,"CLASSIFICATION_TYPE":"U","NORAD_CAT_ID":67373,"ELEMENT_SET_NO":999,"REV_AT_EPOCH":853,"BSTAR":0.00035385661,"MEAN_MOTION_DOT":3.169e-5,"MEAN_MOTION_DDOT":0},{"OBJECT_NAME":"NOAA 17 DEB","OBJECT_ID":"2002-032AY","EPOCH":"2026-03-06T23:21:22.030560","MEAN_MOTION":14.89664022,"ECCENTRICITY":0.00164423,"INCLINATION":98.731,"RA_OF_ASC_NODE":72.2356,"ARG_OF_PERICENTER":98.896,"MEAN_ANOMALY":261.4117,"EPHEMERIS_TYPE":0,"CLASSIFICATION_TYPE":"U","NORAD_CAT_ID":48715,"ELEMENT_SET_NO":999,"REV_AT_EPOCH":25823,"BSTAR":0.0058392427,"MEAN_MOTION_DOT":0.0005635,"MEAN_MOTION_DDOT":0}]
